GOES 19                 
1 60133U 24119A   26087.60112693 -.00000268  00000+0  00000+0 0  9996
2 60133   0.0476  15.5541 0000818  25.4447 286.2025  1.00270005  6158
FENGYUN 3H              
1 65815U 25219A   26087.85084633  .00000066  00000+0  51294-4 0  9990
2 65815  98.6709  30.2079 0000848  61.0170 299.1091 14.19937449 25988
