[{"OBJECT_NAME":"GOES 19","OBJECT_ID":"2024-119A","EPOCH":"2026-03-28T14:25:37.366752","MEAN_MOTION":1.00270005,"ECCENTRICITY":8.18e-5,"INCLINATION":0.0476,"RA_OF_ASC_NODE":15.5541,"ARG_OF_PERICENTER":25.4447,"MEAN_ANOMALY":286.2025,"EPHEMERIS_TYPE":0,"CLASSIFICATION_TYPE":"U","NORAD_CAT_ID":60133,"ELEMENT_SET_NO":999,"REV_AT_EPOCH":615,"BSTAR":0,"MEAN_MOTION_DOT":-2.68e-6,"MEAN_MOTION_DDOT":0},{"OBJECT_NAME":"FENGYUN 3H","OBJECT_ID":"2025-219A","EPOCH":"2026-03-28T20:25:13.122912","MEAN_MOTION":14.19937449,"ECCENTRICITY":8.48e-5,"INCLINATION":98.6709,"RA_OF_ASC_NODE":30.2079,"ARG_OF_PERICENTER":61.017,"MEAN_ANOMALY":299.1091,"EPHEMERIS_TYPE":0,"CLASSIFICATION_TYPE":"U","NORAD_CAT_ID":65815,"ELEMENT_SET_NO":999,"REV_AT_EPOCH":2598,"BSTAR":5.1294e-5,"MEAN_MOTION_DOT":6.6e-7,"MEAN_MOTION_DDOT":0}]
